[{"OBJECT_NAME":"BB3","OBJECT_ID":"2023-133D","EPOCH":"2026-03-09T13:04:02.862912","MEAN_MOTION":14.27357433,"ECCENTRICITY":0.0139598,"INCLINATION":81.0042,"RA_OF_ASC_NODE":95.4105,"ARG_OF_PERICENTER":242.6727,"MEAN_ANOMALY":116.0185,"EPHEMERIS_TYPE":0,"CLASSIFICATION_TYPE":"U","NORAD_CAT_ID":57760,"ELEMENT_SET_NO":999,"REV_AT_EPOCH":12768,"BSTAR":0.00021531,"MEAN_MOTION_DOT":5.96e-6,"MEAN_MOTION_DDOT":0},{"OBJECT_NAME":"CZ-6A DEB","OBJECT_ID":"2024-140EH","EPOCH":"2026-03-09T14:33:56.572992","MEAN_MOTION":14.50931247,"ECCENTRICITY":0.0099098,"INCLINATION":89.0059,"RA_OF_ASC_NODE":283.294,"ARG_OF_PERICENTER":246.6845,"MEAN_ANOMALY":112.3911,"EPHEMERIS_TYPE":0,"CLASSIFICATION_TYPE":"U","NORAD_CAT_ID":60758,"ELEMENT_SET_NO":999,"REV_AT_EPOCH":8347,"BSTAR":0.00014068,"MEAN_MOTION_DOT":6.08e-6,"MEAN_MOTION_DDOT":0}]
